KUIPER-00071            
1 64818U 25151C   25268.33339120 -.00023393  00000+0 -30528-2 0  9999
2 64818  51.8999 314.2798 0008156  44.9085 263.1514 14.79867926  5550
KUIPER-00072            
1 64819U 25151D   25267.40605913 -.00012522  00000+0 -32859-3 0  9995
2 64819  51.8773 309.2109 0007690  49.5563 310.6093 15.37145151 10779
KUIPER-00073            
1 64820U 25151E   25268.33339120 -.00042162  00000+0 -55144-2 0  9998
2 64820  51.8992 314.2791 0013315  78.6609  49.3437 14.80026680  5710
KUIPER-00074            
1 64821U 25151F   25268.33339120 -.01328968  00000+0 -72205-1 0  9997
2 64821  51.8828 305.8537 0013087  72.9205 151.2326 15.17234996  5462
KUIPER-00075            
1 64822U 25151G   25268.28769155  .00068336  00000+0  17948-2 0  9998
2 64822  51.8777 304.6396 0006615  31.6132 328.5251 15.37966333 10917
KUIPER-00076            
1 64823U 25151H   25268.33339120 -.00319950  00000+0 -19247-1 0  9996
2 64823  51.8827 306.9602 0006282  58.6543  48.5487 15.11930657  5134
KUIPER-00077            
1 64824U 25151J   25268.33339120 -.01672232  00000+0 -16141+0 0  9991
2 64824  51.8942 309.9035 0005726  17.4588 103.8351 14.95960778  4985
KUIPER-00078            
1 64825U 25151K   25268.33339120 -.00930311  00000+0 -70761-1 0  9996
2 64825  51.8869 308.2835 0009221  79.5512 106.5618 15.04630225  5499
